NORAD_CAT_ID,OBJECT_NAME,OBJECT_TYPE,EPOCH,MEAN_MOTION,ECCENTRICITY,INCLINATION,RA_OF_ASC_NODE,ARG_OF_PERICENTER,MEAN_ANOMALY,BSTAR,MEAN_MOTION_DOT,MEAN_MOTION_DDOT,TLE_LINE0,TLE_LINE1,TLE_LINE2,SEMIMAJOR_AXIS,PERIOD,APOGEE,PERIGEE,DECAYED
52634.0,STARLINK-3974,PAYLOAD,2024-05-16 21:46:36,15.08859213,0.0001079,53.2178,0.0063,77.9191,282.1922,0.0015397,0.00024314,0.0,0 STARLINK-3974,1 52634U 22052AN  24137.90736921  .00024314  00000-0  15397-2 0  9996,2 52634  53.2178   0.0063 0001079  77.9191 282.1922 15.08859213111087,6917.822,95.436,540.433,538.94,0.0
52634.0,STARLINK-3974,PAYLOAD,2024-05-17 13:40:28,15.08834805,0.0001211,53.2176,357.0341,62.8778,297.2337,0.0010418,0.00016329,0.0,0 STARLINK-3974,1 52634U 22052AN  24138.56977612  .00016329  00000-0  10418-2 0  9999,2 52634  53.2176 357.0341 0001211  62.8778 297.2337 15.08834805111189,6917.896,95.438,540.599,538.924,0.0
52634.0,STARLINK-3974,PAYLOAD,2024-05-17 21:37:24,15.08828621,0.0001477,53.2171,355.5452,62.4528,297.6614,0.00057728,8.909e-05,0.0,0 STARLINK-3974,1 52634U 22052AN  24138.90098050  .00008909  00000-0  57728-3 0  9998,2 52634  53.2171 355.5452 0001477  62.4528 297.6614 15.08828621111230,6917.915,95.438,540.802,538.758,0.0
52634.0,STARLINK-3974,PAYLOAD,2024-05-18 15:06:39,15.08839614,0.0001594,53.2205,352.2775,82.6833,277.434,0.0006331,9.802e-05,0.0,0 STARLINK-3974,1 52634U 22052AN  24139.62962304  .00009802  00000-0  63310-3 0  9997,2 52634  53.2205 352.2775 0001594  82.6833 277.4340 15.08839614111341,6917.882,95.438,540.849,538.644,0.0
52634.0,STARLINK-3974,PAYLOAD,2024-05-18 21:28:11,15.08867944,0.0001147,53.2166,351.0862,84.2715,275.8408,0.0016249,0.00025687,0.0,0 STARLINK-3974,1 52634U 22052AN  24139.89457642  .00025687  00000-0  16249-2 0  9997,2 52634  53.2166 351.0862 0001147  84.2715 275.8408 15.08867944111380,6917.795,95.436,540.453,538.867,0.0
52634.0,STARLINK-3974,PAYLOAD,2024-05-19 19:43:35,15.08846322,0.000153,53.2181,346.9248,96.1844,263.9323,0.00027044,4.019e-05,0.0,0 STARLINK-3974,1 52634U 22052AN  24140.82193849  .00004019  00000-0  27044-3 0  9990,2 52634  53.2181 346.9248 0001530  96.1844 263.9323 15.08846322111908,6917.861,95.437,540.784,538.668,0.0
52634.0,STARLINK-3974,PAYLOAD,2024-05-20 13:12:50,15.08838521,0.0001422,53.2162,343.6527,104.9894,255.1256,0.00046904,7.184e-05,0.0,0 STARLINK-3974,1 52634U 22052AN  24141.55058042  .00007184  00000-0  46904-3 0  9998,2 52634  53.2162 343.6527 0001422 104.9894 255.1256 15.08838521112017,6917.885,95.438,540.734,538.766,0.0
52634.0,STARLINK-3974,PAYLOAD,2024-05-20 21:09:45,15.0885382,0.0001556,53.2164,342.1685,86.0466,274.0704,0.00063902,9.9e-05,0.0,0 STARLINK-3974,1 52634U 22052AN  24141.88177797  .00009900  00000-0  63902-3 0  9998,2 52634  53.2164 342.1685 0001556  86.0466 274.0704 15.08853820112063,6917.838,95.437,540.78,538.627,0.0
52634.0,STARLINK-3974,PAYLOAD,2024-05-21 17:49:46,15.08840158,0.0001581,53.2173,338.3009,95.5085,264.6088,0.0002164,3.158e-05,0.0,0 STARLINK-3974,1 52634U 22052AN  24142.74290107  .00003158  00000-0  21640-3 0  9997,2 52634  53.2173 338.3009 0001581  95.5085 264.6088 15.08840158112194,6917.88,95.438,540.839,538.651,0.0
52634.0,STARLINK-3974,PAYLOAD,2024-05-21 22:35:56,15.08844675,0.0001991,53.2169,337.4109,67.2034,292.9168,0.00034756,5.248e-05,0.0,0 STARLINK-3974,1 52634U 22052AN  24142.94162335  .00005248  00000-0  34756-3 0  9994,2 52634  53.2169 337.4109 0001991  67.2034 292.9168 15.08844675111847,6917.866,95.437,541.108,538.354,0.0
52634.0,STARLINK-3974,PAYLOAD,2024-05-22 19:15:56,15.08843352,0.0001391,53.2157,333.5386,123.3274,236.7852,0.00018241,2.617e-05,0.0,0 STARLINK-3974,1 52634U 22052AN  24143.80273916  .00002617  00000-0  18241-3 0  9996,2 52634  53.2157 333.5386 0001391 123.3274 236.7852 15.08843352112356,6917.87,95.437,540.697,538.773,0.0
52634.0,STARLINK-3974,PAYLOAD,2024-05-22 22:26:43,15.08843634,0.0001436,53.2166,332.9425,107.294,252.8209,0.00024335,3.587e-05,0.0,0 STARLINK-3974,1 52634U 22052AN  24143.93522058  .00003587  00000-0  24335-3 0  9992,2 52634  53.2166 332.9425 0001436 107.2940 252.8209 15.08843634111991,6917.869,95.437,540.728,538.741,0.0
52634.0,STARLINK-3974,PAYLOAD,2024-05-23 19:06:44,15.0883919,0.0001508,53.2178,329.0749,83.5046,276.6118,0.00010588,1.397e-05,0.0,0 STARLINK-3974,1 52634U 22052AN  24144.79634487  .00001397  00000-0  10588-3 0  9999,2 52634  53.2178 329.0749 0001508  83.5046 276.6118 15.08839190112506,6917.883,95.438,540.791,538.705,0.0
52634.0,STARLINK-3974,PAYLOAD,2024-05-24 12:35:58,15.08842969,0.0001479,53.2173,325.8139,91.3589,268.7573,-5.9491e-05,-1.235e-05,0.0,0 STARLINK-3974,1 52634U 22052AN  24145.52498577 -.00001235  00000-0 -59491-4 0  9999,2 52634  53.2173 325.8139 0001479  91.3589 268.7573 15.08842969112239,6917.871,95.437,540.759,538.713,0.0
52634.0,STARLINK-3974,PAYLOAD,2024-05-24 22:08:16,15.0885256,0.0001111,53.2163,324.0256,91.2763,268.8356,0.00017402,2.484e-05,0.0,0 STARLINK-3974,1 52634U 22052AN  24145.92241694  .00002484  00000-0  17402-3 0  9999,2 52634  53.2163 324.0256 0001111  91.2763 268.8356 15.08852560112299,6917.842,95.437,540.476,538.938,0.0
52634.0,STARLINK-3974,PAYLOAD,2024-05-25 10:51:22,15.08834602,0.0001575,53.2162,321.6482,100.7281,259.3888,8.8888e-05,1.127e-05,0.0,0 STARLINK-3974,1 52634U 22052AN  24146.45234946  .00001127  00000-0  88888-4 0  9990,2 52634  53.2162 321.6482 0001575 100.7281 259.3888 15.08834602112750,6917.897,95.438,540.851,538.672,0.0
52634.0,STARLINK-3974,PAYLOAD,2024-05-25 20:23:43,15.08802833,0.0002143,53.2167,319.8714,79.4301,280.6932,-0.00042798,-7.086e-05,0.0,0 STARLINK-3974,1 52634U 22052AN  24146.84981035 -.00007086  00000-0 -42798-3 0  9992,2 52634  53.2167 319.8714 0002143  79.4301 280.6932 15.08802833112814,6917.994,95.44,541.342,538.376,0.0
52634.0,STARLINK-3974,PAYLOAD,2024-05-26 10:42:10,15.08835793,0.0001295,53.2162,317.1884,82.4678,277.6461,-1.0026e-05,-4.47e-06,0.0,0 STARLINK-3974,1 52634U 22052AN  24147.44595347 -.00000447  00000-0 -10026-4 0  9990,2 52634  53.2162 317.1884 0001295  82.4678 277.6461 15.08835793112900,6917.893,95.438,540.654,538.862,0.0
52634.0,STARLINK-3974,PAYLOAD,2024-05-26 20:14:28,15.08846386,0.0001105,53.2165,315.4042,95.7133,264.3985,0.00013543,1.869e-05,0.0,0 STARLINK-3974,1 52634U 22052AN  24147.84338838  .00001869  00000-0  13543-3 0  9997,2 52634  53.2165 315.4042 0001105  95.7133 264.3985 15.08846386112963,6917.861,95.437,540.49,538.961,0.0
52634.0,STARLINK-3974,PAYLOAD,2024-05-27 04:11:25,15.08836658,0.0001439,53.2166,313.9183,111.4424,248.6722,0.0004614,7.062e-05,0.0,0 STARLINK-3974,1 52634U 22052AN  24148.17459610  .00007062  00000-0  46140-3 0  9996,2 52634  53.2166 313.9183 0001439 111.4424 248.6722 15.08836658113014,6917.891,95.438,540.751,538.76,0.0
52634.0,STARLINK-3974,PAYLOAD,2024-05-27 10:32:57,15.08838693,0.0001175,53.2168,312.7273,90.7651,269.3476,0.00017202,2.451e-05,0.0,0 STARLINK-3974,1 52634U 22052AN  24148.43955377  .00002451  00000-0  17202-3 0  9990,2 52634  53.2168 312.7273 0001175  90.7651 269.3476 15.08838693112679,6917.884,95.438,540.562,538.937,0.0
52634.0,STARLINK-3974,PAYLOAD,2024-05-27 18:29:52,15.08844442,0.0001298,53.2176,311.2406,87.4715,272.6426,0.00021244,3.095e-05,0.0,0 STARLINK-3974,1 52634U 22052AN  24148.77075122  .00003095  00000-0  21244-3 0  9994,2 52634  53.2176 311.2406 0001298  87.4715 272.6426 15.08844442112727,6917.867,95.437,540.63,538.834,0.0
52634.0,STARLINK-3974,PAYLOAD,2024-05-28 04:02:11,15.08848551,0.0001265,53.2175,309.4567,95.2703,264.8433,0.00018311,2.628e-05,0.0,0 STARLINK-3974,1 52634U 22052AN  24149.16818802  .00002628  00000-0  18311-3 0  9990,2 52634  53.2175 309.4567 0001265  95.2703 264.8433 15.08848551112783,6917.854,95.437,540.594,538.844,0.0
52634.0,STARLINK-3974,PAYLOAD,2024-05-28 16:45:16,15.08846003,0.000128,53.2175,307.079,79.229,280.8846,9.8374e-05,1.278e-05,0.0,0 STARLINK-3974,1 52634U 22052AN  24149.69810867  .00001278  00000-0  98374-4 0  9999,2 52634  53.2175 307.0790 0001280  79.2290 280.8846 15.08846003113243,6917.862,95.437,540.613,538.842,0.0
52634.0,STARLINK-3974,PAYLOAD,2024-05-29 10:14:31,15.08844207,0.0001399,53.2184,303.808,72.0902,288.0242,3.3358e-05,2.43e-06,0.0,0 STARLINK-3974,1 52634U 22052AN  24150.42675110  .00000243  00000-0  33358-4 0  9994,2 52634  53.2184 303.8080 0001399  72.0902 288.0242 15.08844207113357,6917.868,95.437,540.7,538.765,0.0
52634.0,STARLINK-3974,PAYLOAD,2024-05-29 16:36:03,15.08845267,0.0001371,53.218,302.6179,73.0998,287.0144,2.7721e-05,1.53e-06,0.0,0 STARLINK-3974,1 52634U 22052AN  24150.69170948  .00000153  00000-0  27721-4 0  9999,2 52634  53.2180 302.6179 0001371  73.0998 287.0144 15.08845267113015,6917.864,95.437,540.678,538.781,0.0
52634.0,STARLINK-3974,PAYLOAD,2024-05-30 13:16:04,15.08843413,0.0001198,53.217,298.7522,79.8839,280.2288,0.00010647,1.407e-05,0.0,0 STARLINK-3974,1 52634U 22052AN  24151.55282648  .00001407  00000-0  10647-3 0  9997,2 52634  53.2170 298.7522 0001198  79.8839 280.2288 15.08843413113527,6917.87,95.437,540.564,538.906,0.0
52634.0,STARLINK-3974,PAYLOAD,2024-05-30 14:51:27,15.08844213,0.0001259,53.2171,298.4551,74.452,285.6611,0.00011072,1.475e-05,0.0,0 STARLINK-3974,1 52634U 22052AN  24151.61906614  .00001475  00000-0  11072-3 0  9998,2 52634  53.2171 298.4551 0001259  74.4520 285.6611 15.08844213113150,6917.868,95.437,540.603,538.862,0.0
52634.0,STARLINK-3974,PAYLOAD,2024-05-30 18:02:13,15.08847907,0.0001274,53.2177,297.8589,97.6658,262.4479,0.00014212,1.975e-05,0.0,0 STARLINK-3974,1 52634U 22052AN  24151.75154184  .00001975  00000-0  14212-3 0  9994,2 52634  53.2177 297.8589 0001274  97.6658 262.4479 15.08847907113176,6917.856,95.437,540.603,538.84,0.0
52634.0,STARLINK-3974,PAYLOAD,2024-05-31 14:42:14,15.08842725,0.0001448,53.2182,293.9932,110.2747,249.8401,9.3419e-05,1.199e-05,0.0,0 STARLINK-3974,1 52634U 22052AN  24152.61266590  .00001199  00000-0  93419-4 0  9990,2 52634  53.2182 293.9932 0001448 110.2747 249.8401 15.08842725113307,6917.872,95.437,540.739,538.735,0.0
